{
"type": "FeatureCollection",
"name": "Parcelles_Risque_Zero_COOPAAHS",
"crs": { "type": "name", "properties": { "name": "urn:ogc:def:crs:OGC:1.3:CRS84" } },
"features": [
{ "type": "Feature", "properties": { "Name": "KOUASSI ALEXIS  YA0 P1", "Create_Dat": "30 juil. 2023 07:59:29", "Code": "146", "Detail": "SERIKRO", "Group": "kod04_B", "Place": null, "descriptio": "0", "AREA": 0.52 }, "geometry": { "type": "MultiPolygon", "coordinates": [ [ [ [ -6.347706466913223, 6.820652571481738 ], [ -6.347722895443439, 6.820679536648169 ], [ -6.347770504653454, 6.820698845038018 ], [ -6.347813755273819, 6.820718819233596 ], [ -6.347849294543266, 6.820757436009353 ], [ -6.347884498536587, 6.820778408912116 ], [ -6.347957253456116, 6.820788396008339 ], [ -6.347984410822392, 6.820810034716128 ], [ -6.347972340881824, 6.820859970191917 ], [ -6.347968652844429, 6.820888266959217 ], [ -6.347946524620056, 6.820925552108863 ], [ -6.347914673388004, 6.820956845000096 ], [ -6.347875446081161, 6.820987804986208 ], [ -6.347830183804035, 6.821013105618517 ], [ -6.347782909870148, 6.821030749479757 ], [ -6.347736977040768, 6.821035077219204 ], [ -6.347695738077164, 6.821032746897968 ], [ -6.347663551568985, 6.821034078510096 ], [ -6.347631029784679, 6.82100877787888 ], [ -6.347611248493195, 6.820971492735698 ], [ -6.347630694508553, 6.820949521132111 ], [ -6.347666569054127, 6.820926217915086 ], [ -6.347666904330254, 6.820903913406302 ], [ -6.347637735307217, 6.820864963739202 ], [ -6.347618624567986, 6.820821686327605 ], [ -6.347597166895866, 6.82078440116988 ], [ -6.347561962902546, 6.820766757299569 ], [ -6.347521394491196, 6.820749779235088 ], [ -6.347489543259144, 6.820717820523841 ], [ -6.347446963191032, 6.820712826975017 ], [ -6.347404383122921, 6.820725144395363 ], [ -6.347362473607063, 6.820735131492695 ], [ -6.347318217158318, 6.820715490201055 ], [ -6.34727094322443, 6.820697513424961 ], [ -6.347217634320259, 6.820701175360881 ], [ -6.347184777259827, 6.82068819213337 ], [ -6.347142532467842, 6.820676873421927 ], [ -6.34708721190691, 6.820660228257541 ], [ -6.34705301374197, 6.820628935346958 ], [ -6.347027197480202, 6.82059298178757 ], [ -6.346993669867516, 6.82056834693978 ], [ -6.34693767875433, 6.820526068211539 ], [ -6.346913538873196, 6.820501100456895 ], [ -6.346918903291225, 6.820475799797538 ], [ -6.346950754523277, 6.820451497847145 ], [ -6.346984952688217, 6.820429193316251 ], [ -6.347019486129284, 6.820408553301665 ], [ -6.347054690122604, 6.820395902969695 ], [ -6.347095593810081, 6.820375928760658 ], [ -6.347129791975021, 6.82035129390171 ], [ -6.347170360386372, 6.820337977761189 ], [ -6.347213946282864, 6.820315340321483 ], [ -6.347258538007736, 6.820291371266506 ], [ -6.347314529120922, 6.820258080910384 ], [ -6.347348392009735, 6.820233113141771 ], [ -6.347379572689533, 6.820205815046593 ], [ -6.347480155527592, 6.820207812468253 ], [ -6.347510665655136, 6.820230782816631 ], [ -6.347557604312897, 6.820253753163915 ], [ -6.34760856628418, 6.820261742849675 ], [ -6.347660534083843, 6.820274726088725 ], [ -6.347706131637096, 6.820290705459405 ], [ -6.347739659249783, 6.820306684829538 ], [ -6.347783245146275, 6.820310013864916 ], [ -6.34781040251255, 6.820335647436571 ], [ -6.347817108035088, 6.820379257795564 ], [ -6.347808055579662, 6.820408553301665 ], [ -6.347791291773319, 6.820445505585221 ], [ -6.347785256803036, 6.820490114644442 ], [ -6.347770504653454, 6.820546375317695 ], [ -6.347746029496193, 6.820580997267181 ], [ -6.347706131637096, 6.820629934056893 ], [ -6.347694396972656, 6.820651905675145 ], [ -6.347706466913223, 6.820652571481738 ] ] ] ] } }
]}